id,title,street,city,meta,lon,lat,zip
5779311,Koningin Emmaboulevard,Koningin Emmaboulevard,Hoek van Holland,"[{'key': 'rolstoel', 'title': 'Rolstoel', 'value': 'Nee', 'presenter': 'text'}, {'key': 'baby', 'title': 'Baby', 'value': 'Nee', 'presenter': 'text'}, {'key': 'prulbak', 'title': 'Prullenbak', 'value': 'Nee', 'presenter': 'text'}]",4.113450079327,51.9805517147561,
5779344,Langepad (Voorste),Langepad (Voorste),Rotterdam,"[{'key': 'rolstoel', 'title': 'Rolstoel', 'value': 'Nee', 'presenter': 'text'}, {'key': 'baby', 'title': 'Baby', 'value': 'Nee', 'presenter': 'text'}, {'key': 'prulbak', 'title': 'Prullenbak', 'value': 'Nee', 'presenter': 'text'}]",4.50572911572217,51.9374403663631,
5779347,Aesopusplaats,Aesopusplaats,Rotterdam,"[{'key': 'rolstoel', 'title': 'Rolstoel', 'value': 'Nee', 'presenter': 'text'}, {'key': 'baby', 'title': 'Baby', 'value': 'Nee', 'presenter': 'text'}, {'key': 'prulbak', 'title': 'Prullenbak', 'value': 'Nee', 'presenter': 'text'}]",4.52935777929754,51.8797099750706,
5779350,Kralingse Zoom,Kralingse Zoom,Rotterdam,"[{'key': 'rolstoel', 'title': 'Rolstoel', 'value': 'Nee', 'presenter': 'text'}, {'key': 'baby', 'title': 'Baby', 'value': 'Nee', 'presenter': 'text'}, {'key': 'prulbak', 'title': 'Prullenbak', 'value': 'Nee', 'presenter': 'text'}]",4.53371281826051,51.9211526618968,
5779398,Delftseplein,Delftseplein,Rotterdam,"[{'key': 'rolstoel', 'title': 'Rolstoel', 'value': 'Nee', 'presenter': 'text'}, {'key': 'baby', 'title': 'Baby', 'value': 'Nee', 'presenter': 'text'}, {'key': 'prulbak', 'title': 'Prullenbak', 'value': 'Nee', 'presenter': 'text'}]",4.47097271245374,51.9246843223293,
5779314,Kruisplein,Kruisplein,Rotterdam,"[{'key': 'rolstoel', 'title': 'Rolstoel', 'value': 'Nee', 'presenter': 'text'}, {'key': 'baby', 'title': 'Baby', 'value': 'Nee', 'presenter': 'text'}, {'key': 'prulbak', 'title': 'Prullenbak', 'value': 'Nee', 'presenter': 'text'}]",4.47073468460321,51.9213076315513,
5779317,Hermesplantsoen,Hermesplantsoen,Rotterdam,"[{'key': 'rolstoel', 'title': 'Rolstoel', 'value': 'Nee', 'presenter': 'text'}, {'key': 'baby', 'title': 'Baby', 'value': 'Nee', 'presenter': 'text'}, {'key': 'prulbak', 'title': 'Prullenbak', 'value': 'Nee', 'presenter': 'text'}]",4.47263698246486,51.9171247065729,
5779320,Schouwburgplein,Schouwburgplein,Rotterdam,"[{'key': 'rolstoel', 'title': 'Rolstoel', 'value': 'Nee', 'presenter': 'text'}, {'key': 'baby', 'title': 'Baby', 'value': 'Nee', 'presenter': 'text'}, {'key': 'prulbak', 'title': 'Prullenbak', 'value': 'Nee', 'presenter': 'text'}]",4.47417965302305,51.9213254569426,
5779323,Stadhuisplein,Stadhuisplein,Rotterdam,"[{'key': 'rolstoel', 'title': 'Rolstoel', 'value': 'Nee', 'presenter': 'text'}, {'key': 'baby', 'title': 'Baby', 'value': 'Nee', 'presenter': 'text'}, {'key': 'prulbak', 'title': 'Prullenbak', 'value': 'Nee', 'presenter': 'text'}]",4.47730173611043,51.9222125894294,
5779326,Hartmansstraat,Hartmansstraat,Rotterdam,"[{'key': 'rolstoel', 'title': 'Rolstoel', 'value': 'Nee', 'presenter': 'text'}, {'key': 'baby', 'title': 'Baby', 'value': 'Nee', 'presenter': 'text'}, {'key': 'prulbak', 'title': 'Prullenbak', 'value': 'Nee', 'presenter': 'text'}]",4.47827591341521,51.9161307374654,
5779329,Meent,Meent,Rotterdam,"[{'key': 'rolstoel', 'title': 'Rolstoel', 'value': 'Nee', 'presenter': 'text'}, {'key': 'baby', 'title': 'Baby', 'value': 'Nee', 'presenter': 'text'}, {'key': 'prulbak', 'title': 'Prullenbak', 'value': 'Nee', 'presenter': 'text'}]",4.4809900369354,51.9217017632235,
5779332,Grotekerkplein,Grotekerkplein,Rotterdam,"[{'key': 'rolstoel', 'title': 'Rolstoel', 'value': 'Nee', 'presenter': 'text'}, {'key': 'baby', 'title': 'Baby', 'value': 'Nee', 'presenter': 'text'}, {'key': 'prulbak', 'title': 'Prullenbak', 'value': 'Nee', 'presenter': 'text'}]",4.48622718815335,51.9215173115118,
5779335,Pretorialaan,Pretorialaan,Rotterdam,"[{'key': 'rolstoel', 'title': 'Rolstoel', 'value': 'Nee', 'presenter': 'text'}, {'key': 'baby', 'title': 'Baby', 'value': 'Nee', 'presenter': 'text'}, {'key': 'prulbak', 'title': 'Prullenbak', 'value': 'Nee', 'presenter': 'text'}]",4.49744313562608,51.9013062131119,
5779338,Paul Krugerstraat,Paul Krugerstraat,Rotterdam,"[{'key': 'rolstoel', 'title': 'Rolstoel', 'value': 'Nee', 'presenter': 'text'}, {'key': 'baby', 'title': 'Baby', 'value': 'Nee', 'presenter': 'text'}, {'key': 'prulbak', 'title': 'Prullenbak', 'value': 'Nee', 'presenter': 'text'}]",4.50142095675376,51.901489079401,
5779365,Wijkpark Oude Westen,Wijkpark Oude Westen,Rotterdam,"[{'key': 'rolstoel', 'title': 'Rolstoel', 'value': 'Ja', 'presenter': 'text'}, {'key': 'baby', 'title': 'Baby', 'value': 'Nee', 'presenter': 'text'}, {'key': 'prulbak', 'title': 'Prullenbak', 'value': 'Ja', 'presenter': 'text'}]",4.4699127870366,51.9201659455514,
5779389,Conradstraat,Conradstraat,Rotterdam,"[{'key': 'rolstoel', 'title': 'Rolstoel', 'value': 'Nee', 'presenter': 'text'}, {'key': 'baby', 'title': 'Baby', 'value': 'Nee', 'presenter': 'text'}, {'key': 'prulbak', 'title': 'Prullenbak', 'value': 'Nee', 'presenter': 'text'}]",4.46703116694998,51.9236155302458,
5779392,Delftsestraat,Delftsestraat,Rotterdam,"[{'key': 'rolstoel', 'title': 'Rolstoel', 'value': 'Nee', 'presenter': 'text'}, {'key': 'baby', 'title': 'Baby', 'value': 'Nee', 'presenter': 'text'}, {'key': 'prulbak', 'title': 'Prullenbak', 'value': 'Nee', 'presenter': 'text'}]",4.47461155372243,51.9246986719203,
5779395,Eendrachtstraat,Eendrachtstraat,Rotterdam,"[{'key': 'rolstoel', 'title': 'Rolstoel', 'value': 'Nee', 'presenter': 'text'}, {'key': 'baby', 'title': 'Baby', 'value': 'Nee', 'presenter': 'text'}, {'key': 'prulbak', 'title': 'Prullenbak', 'value': 'Nee', 'presenter': 'text'}]",4.47604814544466,51.9155646053744,
5779368,Café De Ballentent,Parkkade 1,Rotterdam,"[{'key': 'rolstoel', 'title': 'Rolstoel', 'value': 'Nee', 'presenter': 'text'}, {'key': 'baby', 'title': 'Baby', 'value': 'Nee', 'presenter': 'text'}, {'key': 'prulbak', 'title': 'Prullenbak', 'value': 'Ja', 'presenter': 'text'}]",4.47387920627559,51.9044701761497,3016 GN
5779371,Wijnbar Het Eigendom,Witte de Withstraat 45 b,Rotterdam,"[{'key': 'rolstoel', 'title': 'Rolstoel', 'value': 'Nee', 'presenter': 'text'}, {'key': 'baby', 'title': 'Baby', 'value': 'Nee', 'presenter': 'text'}, {'key': 'prulbak', 'title': 'Prullenbak', 'value': 'Ja', 'presenter': 'text'}]",4.47741837749803,51.9157863049696,3012 BM
5779374,Café ‘t Fust,Stadhuisplein 21,Rotterdam,"[{'key': 'rolstoel', 'title': 'Rolstoel', 'value': 'Nee', 'presenter': 'text'}, {'key': 'baby', 'title': 'Baby', 'value': 'Nee', 'presenter': 'text'}, {'key': 'prulbak', 'title': 'Prullenbak', 'value': 'Ja', 'presenter': 'text'}]",4.47719825963275,51.922475663128,3012 AR
5779377,Coco-Nuts,Stadhuisplein 19,Rotterdam,"[{'key': 'rolstoel', 'title': 'Rolstoel', 'value': 'Nee', 'presenter': 'text'}, {'key': 'baby', 'title': 'Baby', 'value': 'Nee', 'presenter': 'text'}, {'key': 'prulbak', 'title': 'Prullenbak', 'value': 'Ja', 'presenter': 'text'}]",4.47727798405234,51.9224848987277,3012 AR
5779380,Cornelis Bar & Kitchen,Stadhuisplein 3,Rotterdam,"[{'key': 'rolstoel', 'title': 'Rolstoel', 'value': 'Nee', 'presenter': 'text'}, {'key': 'baby', 'title': 'Baby', 'value': 'Nee', 'presenter': 'text'}, {'key': 'prulbak', 'title': 'Prullenbak', 'value': 'Ja', 'presenter': 'text'}]",4.47780486498998,51.9225989773257,3012 AR
5779383,Suite Hotel Pincoffs,Stieltjesstraat 34,Rotterdam,"[{'key': 'rolstoel', 'title': 'Rolstoel', 'value': 'Ja', 'presenter': 'text'}, {'key': 'baby', 'title': 'Baby', 'value': 'Nee', 'presenter': 'text'}, {'key': 'prulbak', 'title': 'Prullenbak', 'value': 'Ja', 'presenter': 'text'}]",4.49697867934088,51.9108838151525,3071 JX
5779404,Nieuw Rotterdams Cafe,Witte de Withstraat 63,Rotterdam,"[{'key': 'rolstoel', 'title': 'Rolstoel', 'value': 'Nee', 'presenter': 'text'}, {'key': 'baby', 'title': 'Baby', 'value': 'Ja', 'presenter': 'text'}, {'key': 'prulbak', 'title': 'Prullenbak', 'value': 'Ja', 'presenter': 'text'}]",4.47623560312329,51.9155233528742,3012 BN
5779407,Poffertjessalon Seth,Hoogstraat 147,Rotterdam,"[{'key': 'rolstoel', 'title': 'Rolstoel', 'value': 'Nee', 'presenter': 'text'}, {'key': 'baby', 'title': 'Baby', 'value': 'Ja', 'presenter': 'text'}, {'key': 'prulbak', 'title': 'Prullenbak', 'value': 'Nee', 'presenter': 'text'}]",4.48627901004023,51.9210852287144,3011 PM
5779410,Vlaamsch Broodhuys Meent,Meent 8A,Rotterdam,"[{'key': 'rolstoel', 'title': 'Rolstoel', 'value': 'Nee', 'presenter': 'text'}, {'key': 'baby', 'title': 'Baby', 'value': 'Ja', 'presenter': 'text'}, {'key': 'prulbak', 'title': 'Prullenbak', 'value': 'Ja', 'presenter': 'text'}]",4.48630408119088,51.9242829208941,3011 JJ
5779413,Vlaamsch Broodhuys Nieuwe Binnenweg,Nieuwe Binnenweg 127 B,Rotterdam,"[{'key': 'rolstoel', 'title': 'Rolstoel', 'value': 'Nee', 'presenter': 'text'}, {'key': 'baby', 'title': 'Baby', 'value': 'Ja', 'presenter': 'text'}, {'key': 'prulbak', 'title': 'Prullenbak', 'value': 'Ja', 'presenter': 'text'}]",4.46623141053237,51.9155524626986,3014 GJ
5779416,Proeflokaal Reijngoud,Schiedamse Vest 148,Rotterdam,"[{'key': 'rolstoel', 'title': 'Rolstoel', 'value': 'Nee', 'presenter': 'text'}, {'key': 'baby', 'title': 'Baby', 'value': 'Nee', 'presenter': 'text'}, {'key': 'prulbak', 'title': 'Prullenbak', 'value': 'Ja', 'presenter': 'text'}]",4.48030888986362,51.916438212238,3011 BG
5779419,M'Eat,Haringvliet 637,Rotterdam,"[{'key': 'rolstoel', 'title': 'Rolstoel', 'value': 'Nee', 'presenter': 'text'}, {'key': 'baby', 'title': 'Baby', 'value': 'Nee', 'presenter': 'text'}, {'key': 'prulbak', 'title': 'Prullenbak', 'value': 'Ja', 'presenter': 'text'}]",4.49296944289229,51.9196746486333,3011 ZP
5779422,De Gele Kanarie,Goudsesingel 284,Rotterdam,"[{'key': 'rolstoel', 'title': 'Rolstoel', 'value': 'Nee', 'presenter': 'text'}, {'key': 'baby', 'title': 'Baby', 'value': 'Ja', 'presenter': 'text'}, {'key': 'prulbak', 'title': 'Prullenbak', 'value': 'Ja', 'presenter': 'text'}]",4.48943536076779,51.9241810503693,3011 KH
5779431,WORM,Boomgaardsstraat 71,Rotterdam,"[{'key': 'rolstoel', 'title': 'Rolstoel', 'value': 'Ja', 'presenter': 'text'}, {'key': 'baby', 'title': 'Baby', 'value': 'Nee', 'presenter': 'text'}, {'key': 'prulbak', 'title': 'Prullenbak', 'value': 'Ja', 'presenter': 'text'}]",4.47633610321106,51.9157610957233,3012 XA
5779434,Chocolate Company Cafe,Oude Binnenweg 109A,Rotterdam,"[{'key': 'rolstoel', 'title': 'Rolstoel', 'value': 'Nee', 'presenter': 'text'}, {'key': 'baby', 'title': 'Baby', 'value': 'Nee', 'presenter': 'text'}, {'key': 'prulbak', 'title': 'Prullenbak', 'value': 'Ja', 'presenter': 'text'}]",4.4746390395332,51.9175286247058,3012 JB
5779437,Baek Food&Drinks,Blaak 329,Rotterdam,"[{'key': 'rolstoel', 'title': 'Rolstoel', 'value': 'Nee', 'presenter': 'text'}, {'key': 'baby', 'title': 'Baby', 'value': 'Ja', 'presenter': 'text'}, {'key': 'prulbak', 'title': 'Prullenbak', 'value': 'Ja', 'presenter': 'text'}]",4.48444223547365,51.9188702073249,3011 GB
5779440,Fenix Food Factory,Nico Koomanskade 1025,Rotterdam,"[{'key': 'rolstoel', 'title': 'Rolstoel', 'value': 'Ja', 'presenter': 'text'}, {'key': 'baby', 'title': 'Baby', 'value': 'Ja', 'presenter': 'text'}, {'key': 'prulbak', 'title': 'Prullenbak', 'value': 'Ja', 'presenter': 'text'}]",4.48768260740613,51.9020056487962,3072 LM
5779443,Lunchroom Figaro,Oude Binnenweg 53 A,Rotterdam,"[{'key': 'rolstoel', 'title': 'Rolstoel', 'value': 'Nee', 'presenter': 'text'}, {'key': 'baby', 'title': 'Baby', 'value': 'Nee', 'presenter': 'text'}, {'key': 'prulbak', 'title': 'Prullenbak', 'value': 'Nee', 'presenter': 'text'}]",4.47620274579313,51.9178745025092,3012 JA
5779446,Cafe Lunchroom Shino,1e Middellandstraat 128b,Rotterdam,"[{'key': 'rolstoel', 'title': 'Rolstoel', 'value': 'Nee', 'presenter': 'text'}, {'key': 'baby', 'title': 'Baby', 'value': 'Nee', 'presenter': 'text'}, {'key': 'prulbak', 'title': 'Prullenbak', 'value': 'Ja', 'presenter': 'text'}]",4.45955796974907,51.9182344202957,3021 BJ
5779449,Bokaal,Nieuwemarkt 11,Rotterdam,"[{'key': 'rolstoel', 'title': 'Rolstoel', 'value': 'Nee', 'presenter': 'text'}, {'key': 'baby', 'title': 'Baby', 'value': 'Ja', 'presenter': 'text'}, {'key': 'prulbak', 'title': 'Prullenbak', 'value': 'Ja', 'presenter': 'text'}]",4.4883942765208,51.9223646004158,3011 HP
5779452,Plan C - The Social Club,Slepersvest 1,Rotterdam,"[{'key': 'rolstoel', 'title': 'Rolstoel', 'value': 'Nee', 'presenter': 'text'}, {'key': 'baby', 'title': 'Baby', 'value': 'Ja', 'presenter': 'text'}, {'key': 'prulbak', 'title': 'Prullenbak', 'value': 'Ja', 'presenter': 'text'}]",4.49125650762628,51.9200841309416,3011 MK
5779455,Spirit,Mariniersweg 9,Rotterdam,"[{'key': 'rolstoel', 'title': 'Rolstoel', 'value': 'Ja', 'presenter': 'text'}, {'key': 'baby', 'title': 'Baby', 'value': 'Ja', 'presenter': 'text'}, {'key': 'prulbak', 'title': 'Prullenbak', 'value': 'Ja', 'presenter': 'text'}]",4.48842032422824,51.9241739662942,3011 NB
5779458,Hotel New York,Koninginnenhoofd 1,Rotterdam,"[{'key': 'rolstoel', 'title': 'Rolstoel', 'value': 'Ja', 'presenter': 'text'}, {'key': 'baby', 'title': 'Baby', 'value': 'Ja', 'presenter': 'text'}, {'key': 'prulbak', 'title': 'Prullenbak', 'value': 'Ja', 'presenter': 'text'}]",4.48458812078052,51.9041084813355,3072 AD
5779461,Café Tante Sidonia,Schiedamseweg 223-A,Rotterdam,"[{'key': 'rolstoel', 'title': 'Rolstoel', 'value': 'Nee', 'presenter': 'text'}, {'key': 'baby', 'title': 'Baby', 'value': 'Nee', 'presenter': 'text'}, {'key': 'prulbak', 'title': 'Prullenbak', 'value': 'Nee', 'presenter': 'text'}]",4.4366787473179,51.9122228312572,3026 AN
5779470,Anne&Max,Korte Hoogstraat 20,Rotterdam,"[{'key': 'rolstoel', 'title': 'Rolstoel', 'value': 'Nee', 'presenter': 'text'}, {'key': 'baby', 'title': 'Baby', 'value': 'Ja', 'presenter': 'text'}, {'key': 'prulbak', 'title': 'Prullenbak', 'value': 'Nee', 'presenter': 'text'}]",4.48239671476441,51.9195239710498,3011 GL
5779473,Brasserie Timmerhuis,Halvemaanpassage 121,Rotterdam,"[{'key': 'rolstoel', 'title': 'Rolstoel', 'value': 'Nee', 'presenter': 'text'}, {'key': 'baby', 'title': 'Baby', 'value': 'Nee', 'presenter': 'text'}, {'key': 'prulbak', 'title': 'Prullenbak', 'value': 'Nee', 'presenter': 'text'}]",4.48139831230759,51.9228101376612,3011 DL
5779536,Lot en Daan,Oost-Wijnstraat 24,Rotterdam,"[{'key': 'rolstoel', 'title': 'Rolstoel', 'value': 'Nee', 'presenter': 'text'}, {'key': 'baby', 'title': 'Baby', 'value': 'Ja', 'presenter': 'text'}, {'key': 'prulbak', 'title': 'Prullenbak', 'value': 'Nee', 'presenter': 'text'}]",4.49070629000145,51.9187274283593,3011 TZ
5779539,Mooii,Oost-Wijnstraat 8,Rotterdam,"[{'key': 'rolstoel', 'title': 'Rolstoel', 'value': 'Nee', 'presenter': 'text'}, {'key': 'baby', 'title': 'Baby', 'value': 'Nee', 'presenter': 'text'}, {'key': 'prulbak', 'title': 'Prullenbak', 'value': 'Nee', 'presenter': 'text'}]",4.4912826614152,51.9188221974227,3011 TZ
5779542,Stayokay,Overblaak 85,Rotterdam,"[{'key': 'rolstoel', 'title': 'Rolstoel', 'value': 'Ja', 'presenter': 'text'}, {'key': 'baby', 'title': 'Baby', 'value': 'Nee', 'presenter': 'text'}, {'key': 'prulbak', 'title': 'Prullenbak', 'value': 'Nee', 'presenter': 'text'}]",4.49101108267231,51.9200857616265,3011 MH
5779545,Popocatepetl,Spaansepoort 71,Rotterdam,"[{'key': 'rolstoel', 'title': 'Rolstoel', 'value': 'Nee', 'presenter': 'text'}, {'key': 'baby', 'title': 'Baby', 'value': 'Ja', 'presenter': 'text'}, {'key': 'prulbak', 'title': 'Prullenbak', 'value': 'Nee', 'presenter': 'text'}]",4.49217142809831,51.9197333062628,3011 MN
5779548,Café Vader Kleinjan,Spaansepoort 73,Rotterdam,"[{'key': 'rolstoel', 'title': 'Rolstoel', 'value': 'Nee', 'presenter': 'text'}, {'key': 'baby', 'title': 'Baby', 'value': 'Ja', 'presenter': 'text'}, {'key': 'prulbak', 'title': 'Prullenbak', 'value': 'Nee', 'presenter': 'text'}]",4.49240479807608,51.9197186730014,3011 MN
5779551,Apartt,Blaak 4,Rotterdam,"[{'key': 'rolstoel', 'title': 'Rolstoel', 'value': 'Nee', 'presenter': 'text'}, {'key': 'baby', 'title': 'Baby', 'value': 'Ja', 'presenter': 'text'}, {'key': 'prulbak', 'title': 'Prullenbak', 'value': 'Nee', 'presenter': 'text'}]",4.49091876381412,51.919885721221,3011 TA
5779554,Pardoen,Spaansekade 62,Rotterdam,"[{'key': 'rolstoel', 'title': 'Rolstoel', 'value': 'Nee', 'presenter': 'text'}, {'key': 'baby', 'title': 'Baby', 'value': 'Ja', 'presenter': 'text'}, {'key': 'prulbak', 'title': 'Prullenbak', 'value': 'Nee', 'presenter': 'text'}]",4.49199650312588,51.9198839456661,3011 ML
5779557,Kade 4,Spaansekade 4,Rotterdam,"[{'key': 'rolstoel', 'title': 'Rolstoel', 'value': 'Nee', 'presenter': 'text'}, {'key': 'baby', 'title': 'Baby', 'value': 'Ja', 'presenter': 'text'}, {'key': 'prulbak', 'title': 'Prullenbak', 'value': 'Nee', 'presenter': 'text'}]",4.49139257407945,51.9199649622599,3011 ML
5779560,Stockholm Bar,Spaansekade 12,Rotterdam,"[{'key': 'rolstoel', 'title': 'Rolstoel', 'value': 'Nee', 'presenter': 'text'}, {'key': 'baby', 'title': 'Baby', 'value': 'Ja', 'presenter': 'text'}, {'key': 'prulbak', 'title': 'Prullenbak', 'value': 'Nee', 'presenter': 'text'}]",4.49168801478267,51.9199044271671,3011 ML
5779563,Hotel Santa Maria,Scheepstimmermanslaan 13,Rotterdam,"[{'key': 'rolstoel', 'title': 'Rolstoel', 'value': 'Ja', 'presenter': 'text'}, {'key': 'baby', 'title': 'Baby', 'value': 'Nee', 'presenter': 'text'}, {'key': 'prulbak', 'title': 'Prullenbak', 'value': 'Nee', 'presenter': 'text'}]",4.47750958149869,51.9108155327825,3016 AC
5779566,Hotel The James,Aert van Nesstraat 25,Rotterdam,"[{'key': 'rolstoel', 'title': 'Rolstoel', 'value': 'Ja', 'presenter': 'text'}, {'key': 'baby', 'title': 'Baby', 'value': 'Nee', 'presenter': 'text'}, {'key': 'prulbak', 'title': 'Prullenbak', 'value': 'Nee', 'presenter': 'text'}]",4.47792609336079,51.9211641397002,3012 CA
5779569,Hilton Rotterdam,Weena 10,Rotterdam,"[{'key': 'rolstoel', 'title': 'Rolstoel', 'value': 'Ja', 'presenter': 'text'}, {'key': 'baby', 'title': 'Baby', 'value': 'Nee', 'presenter': 'text'}, {'key': 'prulbak', 'title': 'Prullenbak', 'value': 'Nee', 'presenter': 'text'}]",4.47712757170204,51.9236345761206,3012 CM
5779572,91 Spices,Gelderseplein 46,Rotterdam,"[{'key': 'rolstoel', 'title': 'Rolstoel', 'value': 'Nee', 'presenter': 'text'}, {'key': 'baby', 'title': 'Baby', 'value': 'Ja', 'presenter': 'text'}, {'key': 'prulbak', 'title': 'Prullenbak', 'value': 'Nee', 'presenter': 'text'}]",4.4903365172685,51.9189156163902,3011 WZ
5779605,Matelief,Spaansekade 34,Rotterdam,"[{'key': 'rolstoel', 'title': 'Rolstoel', 'value': 'Ja', 'presenter': 'text'}, {'key': 'baby', 'title': 'Baby', 'value': 'Ja', 'presenter': 'text'}, {'key': 'prulbak', 'title': 'Prullenbak', 'value': 'Nee', 'presenter': 'text'}]",4.49183312365689,51.9198712704124,3011 ML
5779755,IJssalon Hillegersberg,Van Beethovensingel 64,Rotterdam,"[{'key': 'rolstoel', 'title': 'Rolstoel', 'value': 'Nee', 'presenter': 'text'}, {'key': 'baby', 'title': 'Baby', 'value': 'Nee', 'presenter': 'text'}, {'key': 'prulbak', 'title': 'Prullenbak', 'value': 'Nee', 'presenter': 'text'}]",4.50540282457035,51.96122252511,3055 JK
5779758,Eetcafe Bergpolder,Bergselaan 340B,Rotterdam,"[{'key': 'rolstoel', 'title': 'Rolstoel', 'value': 'Nee', 'presenter': 'text'}, {'key': 'baby', 'title': 'Baby', 'value': 'Nee', 'presenter': 'text'}, {'key': 'prulbak', 'title': 'Prullenbak', 'value': 'Nee', 'presenter': 'text'}]",4.46499639424831,51.9333340596424,3038 CP
5779761,Hudson 010,Hudsonplein 1A,Rotterdam,"[{'key': 'rolstoel', 'title': 'Rolstoel', 'value': 'Nee', 'presenter': 'text'}, {'key': 'baby', 'title': 'Baby', 'value': 'Nee', 'presenter': 'text'}, {'key': 'prulbak', 'title': 'Prullenbak', 'value': 'Nee', 'presenter': 'text'}]",4.44501825885211,51.9058041869924,3025 CA
5779764,Eetcafe Boulevard,Burgemeester Baumannlaan 145-147,Rotterdam,"[{'key': 'rolstoel', 'title': 'Rolstoel', 'value': 'Nee', 'presenter': 'text'}, {'key': 'baby', 'title': 'Baby', 'value': 'Ja', 'presenter': 'text'}, {'key': 'prulbak', 'title': 'Prullenbak', 'value': 'Nee', 'presenter': 'text'}]",4.42773967265739,51.9366352597953,3042 AC
5779767,Verhage,Burgemeester Baumannlaan 123A,Rotterdam,"[{'key': 'rolstoel', 'title': 'Rolstoel', 'value': 'Nee', 'presenter': 'text'}, {'key': 'baby', 'title': 'Baby', 'value': 'Ja', 'presenter': 'text'}, {'key': 'prulbak', 'title': 'Prullenbak', 'value': 'Nee', 'presenter': 'text'}]",4.42728494791211,51.9370887788743,3043 AJ
5779770,Diner at Donner,Coolsingel 129,Rotterdam,"[{'key': 'rolstoel', 'title': 'Rolstoel', 'value': 'Ja', 'presenter': 'text'}, {'key': 'baby', 'title': 'Baby', 'value': 'Nee', 'presenter': 'text'}, {'key': 'prulbak', 'title': 'Prullenbak', 'value': 'Nee', 'presenter': 'text'}]",4.47934829964698,51.9188553132127,3012AG
5779776,La Fuga,West-Kruiskade 59B,Rotterdam,"[{'key': 'rolstoel', 'title': 'Rolstoel', 'value': 'Nee', 'presenter': 'text'}, {'key': 'baby', 'title': 'Baby', 'value': 'Nee', 'presenter': 'text'}, {'key': 'prulbak', 'title': 'Prullenbak', 'value': 'Nee', 'presenter': 'text'}]",4.46805801035402,51.9203846353564,3014 AL
5779779,Café de Klapdeur,Vlietlaan 39B,Rotterdam,"[{'key': 'rolstoel', 'title': 'Rolstoel', 'value': 'Nee', 'presenter': 'text'}, {'key': 'baby', 'title': 'Baby', 'value': 'Nee', 'presenter': 'text'}, {'key': 'prulbak', 'title': 'Prullenbak', 'value': 'Nee', 'presenter': 'text'}]",4.50186067449923,51.9294276372795,3061 DV
5779782,Café Centraal,Zwart Janstraat 15,Rotterdam,"[{'key': 'rolstoel', 'title': 'Rolstoel', 'value': 'Nee', 'presenter': 'text'}, {'key': 'baby', 'title': 'Baby', 'value': 'Nee', 'presenter': 'text'}, {'key': 'prulbak', 'title': 'Prullenbak', 'value': 'Nee', 'presenter': 'text'}]",4.48034526163279,51.9326599381531,3035 AJ
5779785,Café Kaktus,Crooswijkseweg 102,Rotterdam,"[{'key': 'rolstoel', 'title': 'Rolstoel', 'value': 'Nee', 'presenter': 'text'}, {'key': 'baby', 'title': 'Baby', 'value': 'Nee', 'presenter': 'text'}, {'key': 'prulbak', 'title': 'Prullenbak', 'value': 'Nee', 'presenter': 'text'}]",4.49278619480831,51.9308474077509,3034 HP
5779788,Café Postiljon,Noordplein 101,Rotterdam,"[{'key': 'rolstoel', 'title': 'Rolstoel', 'value': 'Nee', 'presenter': 'text'}, {'key': 'baby', 'title': 'Baby', 'value': 'Nee', 'presenter': 'text'}, {'key': 'prulbak', 'title': 'Prullenbak', 'value': 'Nee', 'presenter': 'text'}]",4.48424420858255,51.9309532304575,3035 EC
5779791,Frietboutique Hillegersberg,Bergse Dorpsstraat 16A,Rotterdam,"[{'key': 'rolstoel', 'title': 'Rolstoel', 'value': 'Nee', 'presenter': 'text'}, {'key': 'baby', 'title': 'Baby', 'value': 'Nee', 'presenter': 'text'}, {'key': 'prulbak', 'title': 'Prullenbak', 'value': 'Nee', 'presenter': 'text'}]",4.49398979507668,51.9556272158024,3054 GD
5779794,Frietboutique Kralingen,Lusthofstraat 39,Rotterdam,"[{'key': 'rolstoel', 'title': 'Rolstoel', 'value': 'Nee', 'presenter': 'text'}, {'key': 'baby', 'title': 'Baby', 'value': 'Nee', 'presenter': 'text'}, {'key': 'prulbak', 'title': 'Prullenbak', 'value': 'Nee', 'presenter': 'text'}]",4.51122434186981,51.9239093817231,3061 WK
5779797,Jordy's Bakery,Vlietlaan 52,Rotterdam,"[{'key': 'rolstoel', 'title': 'Rolstoel', 'value': 'Nee', 'presenter': 'text'}, {'key': 'baby', 'title': 'Baby', 'value': 'Nee', 'presenter': 'text'}, {'key': 'prulbak', 'title': 'Prullenbak', 'value': 'Nee', 'presenter': 'text'}]",4.50221065734666,51.9288923687808,3061 DZ
5779800,St. Laurentius,Nieuwe Crooswijkseweg 123,Rotterdam,"[{'key': 'rolstoel', 'title': 'Rolstoel', 'value': 'Nee', 'presenter': 'text'}, {'key': 'baby', 'title': 'Baby', 'value': 'Nee', 'presenter': 'text'}, {'key': 'prulbak', 'title': 'Prullenbak', 'value': 'Nee', 'presenter': 'text'}]",4.49591971232906,51.9341200413796,3034 PN
5779803,Ayla,Kruisplein 153,Rotterdam,"[{'key': 'rolstoel', 'title': 'Rolstoel', 'value': 'Nee', 'presenter': 'text'}, {'key': 'baby', 'title': 'Baby', 'value': 'Nee', 'presenter': 'text'}, {'key': 'prulbak', 'title': 'Prullenbak', 'value': 'Nee', 'presenter': 'text'}]",4.47083601534673,51.9211617834771,3014 DD
5779806,McDonalds (Coolsingel),Coolsingel 207,Rotterdam,"[{'key': 'rolstoel', 'title': 'Rolstoel', 'value': 'Nee', 'presenter': 'text'}, {'key': 'baby', 'title': 'Baby', 'value': 'Ja', 'presenter': 'text'}, {'key': 'prulbak', 'title': 'Prullenbak', 'value': 'Nee', 'presenter': 'text'}]",4.48022854625689,51.9181660072509,3012 AG
5779809,McDonalds (Groene Hilledijk),Groene Hilledijk 135,Rotterdam,"[{'key': 'rolstoel', 'title': 'Rolstoel', 'value': 'Ja', 'presenter': 'text'}, {'key': 'baby', 'title': 'Baby', 'value': 'Ja', 'presenter': 'text'}, {'key': 'prulbak', 'title': 'Prullenbak', 'value': 'Nee', 'presenter': 'text'}]",4.50931713202527,51.8938728184323,3073 AA
5779812,Decathlon,Coolsingel 45,Rotterdam,"[{'key': 'rolstoel', 'title': 'Rolstoel', 'value': 'Ja', 'presenter': 'text'}, {'key': 'baby', 'title': 'Baby', 'value': 'Ja', 'presenter': 'text'}, {'key': 'prulbak', 'title': 'Prullenbak', 'value': 'Nee', 'presenter': 'text'}]",4.47775438688969,51.9232291767779,3012 AA
5779815,Bakkerij Van Maanen,Lusthofstraat 73,Rotterdam,"[{'key': 'rolstoel', 'title': 'Rolstoel', 'value': 'Nee', 'presenter': 'text'}, {'key': 'baby', 'title': 'Baby', 'value': 'Nee', 'presenter': 'text'}, {'key': 'prulbak', 'title': 'Prullenbak', 'value': 'Nee', 'presenter': 'text'}]",4.50971900051556,51.9246433556043,3061 WL
5779818,Loos,Westplein 51,Rotterdam,"[{'key': 'rolstoel', 'title': 'Rolstoel', 'value': 'Nee', 'presenter': 'text'}, {'key': 'baby', 'title': 'Baby', 'value': 'Nee', 'presenter': 'text'}, {'key': 'prulbak', 'title': 'Prullenbak', 'value': 'Nee', 'presenter': 'text'}]",4.47908927868915,51.9089499479956,3016 BM
5779821,Cafe Lebbink,Bergse Dorpsstraat 138,Rotterdam,"[{'key': 'rolstoel', 'title': 'Rolstoel', 'value': 'Nee', 'presenter': 'text'}, {'key': 'baby', 'title': 'Baby', 'value': 'Nee', 'presenter': 'text'}, {'key': 'prulbak', 'title': 'Prullenbak', 'value': 'Nee', 'presenter': 'text'}]",4.49442939371728,51.9584085833868,3054 GH
5779824,Bar Alaska,Kerkhoflaan 145,Rotterdam,"[{'key': 'rolstoel', 'title': 'Rolstoel', 'value': 'Nee', 'presenter': 'text'}, {'key': 'baby', 'title': 'Baby', 'value': 'Nee', 'presenter': 'text'}, {'key': 'prulbak', 'title': 'Prullenbak', 'value': 'Nee', 'presenter': 'text'}]",4.4901857574137,51.9357635316559,3034 TC
5779827,Café Prins Hendrik,Prins Hendrikstraat 267,Hoek van Holland,"[{'key': 'rolstoel', 'title': 'Rolstoel', 'value': 'Nee', 'presenter': 'text'}, {'key': 'baby', 'title': 'Baby', 'value': 'Nee', 'presenter': 'text'}, {'key': 'prulbak', 'title': 'Prullenbak', 'value': 'Nee', 'presenter': 'text'}]",4.12965047499781,51.9777414657195,3151 AK
5779830,iKapitein,Aelbrechtskolk 53,Rotterdam,"[{'key': 'rolstoel', 'title': 'Rolstoel', 'value': 'Nee', 'presenter': 'text'}, {'key': 'baby', 'title': 'Baby', 'value': 'Nee', 'presenter': 'text'}, {'key': 'prulbak', 'title': 'Prullenbak', 'value': 'Nee', 'presenter': 'text'}]",4.44807195697263,51.9084524232909,3025 HB
5779833,Brasserie LEF,Hesseplaats 102A,Rotterdam,"[{'key': 'rolstoel', 'title': 'Rolstoel', 'value': 'Nee', 'presenter': 'text'}, {'key': 'baby', 'title': 'Baby', 'value': 'Ja', 'presenter': 'text'}, {'key': 'prulbak', 'title': 'Prullenbak', 'value': 'Nee', 'presenter': 'text'}]",4.55192148083522,51.9620404874059,3068 EA
5779836,Grand Café Westerpaviljoen,Mathenesserlaan 156,Rotterdam,"[{'key': 'rolstoel', 'title': 'Rolstoel', 'value': 'Nee', 'presenter': 'text'}, {'key': 'baby', 'title': 'Baby', 'value': 'Ja', 'presenter': 'text'}, {'key': 'prulbak', 'title': 'Prullenbak', 'value': 'Nee', 'presenter': 'text'}]",4.46628289386308,51.9149066900847,3015 CJ
5779839,Grace,Stadhuisplein 1A,Rotterdam,"[{'key': 'rolstoel', 'title': 'Rolstoel', 'value': 'Nee', 'presenter': 'text'}, {'key': 'baby', 'title': 'Baby', 'value': 'Ja', 'presenter': 'text'}, {'key': 'prulbak', 'title': 'Prullenbak', 'value': 'Nee', 'presenter': 'text'}]",4.47807299637733,51.9226528459272,
5779842,Café van Zanten,Meent 44,Rotterdam,"[{'key': 'rolstoel', 'title': 'Rolstoel', 'value': 'Nee', 'presenter': 'text'}, {'key': 'baby', 'title': 'Baby', 'value': 'Nee', 'presenter': 'text'}, {'key': 'prulbak', 'title': 'Prullenbak', 'value': 'Nee', 'presenter': 'text'}]",4.48512834436407,51.923294385796,3011 JL
5779845,Sijf,Oude Binnenweg 115B,Rotterdam,"[{'key': 'rolstoel', 'title': 'Rolstoel', 'value': 'Nee', 'presenter': 'text'}, {'key': 'baby', 'title': 'Baby', 'value': 'Ja', 'presenter': 'text'}, {'key': 'prulbak', 'title': 'Prullenbak', 'value': 'Nee', 'presenter': 'text'}]",4.47428398185788,51.9174596545837,3012 JB
5779848,Beachclub Noord-Noord-West,Zeekant 8,Hoek van Holland,"[{'key': 'rolstoel', 'title': 'Rolstoel', 'value': 'Ja', 'presenter': 'text'}, {'key': 'baby', 'title': 'Baby', 'value': 'Ja', 'presenter': 'text'}, {'key': 'prulbak', 'title': 'Prullenbak', 'value': 'Nee', 'presenter': 'text'}]",4.10389424480559,51.9872334773352,3151 HW
5779851,Hotel Amerika,Rierdijkstraat 96,Hoek van Holland,"[{'key': 'rolstoel', 'title': 'Rolstoel', 'value': 'Ja', 'presenter': 'text'}, {'key': 'baby', 'title': 'Baby', 'value': 'Ja', 'presenter': 'text'}, {'key': 'prulbak', 'title': 'Prullenbak', 'value': 'Nee', 'presenter': 'text'}]",4.12980628956116,51.9779072351658,3151 GK
5779854,Torpedoloods,Stationsweg 43,Hoek van Holland,"[{'key': 'rolstoel', 'title': 'Rolstoel', 'value': 'Ja', 'presenter': 'text'}, {'key': 'baby', 'title': 'Baby', 'value': 'Ja', 'presenter': 'text'}, {'key': 'prulbak', 'title': 'Prullenbak', 'value': 'Nee', 'presenter': 'text'}]",4.12553295533363,51.9776878072624,3151 HR
5779857,Strandrestaurant FF Tijd,Zeekant 91,Hoek van Holland,"[{'key': 'rolstoel', 'title': 'Rolstoel', 'value': 'Ja', 'presenter': 'text'}, {'key': 'baby', 'title': 'Baby', 'value': 'Ja', 'presenter': 'text'}, {'key': 'prulbak', 'title': 'Prullenbak', 'value': 'Nee', 'presenter': 'text'}]",4.10335962399636,51.9869982654998,3151 HW
5779860,Roompot Beach Villa's,Zeekant 125,Hoek van Holland,"[{'key': 'rolstoel', 'title': 'Rolstoel', 'value': 'Ja', 'presenter': 'text'}, {'key': 'baby', 'title': 'Baby', 'value': 'Ja', 'presenter': 'text'}, {'key': 'prulbak', 'title': 'Prullenbak', 'value': 'Nee', 'presenter': 'text'}]",4.10244787475559,51.9851116085034,3151 HW
5779863,The Prince Pub,Marinus Bolkplein 32,Rotterdam,"[{'key': 'rolstoel', 'title': 'Rolstoel', 'value': 'Nee', 'presenter': 'text'}, {'key': 'baby', 'title': 'Baby', 'value': 'Nee', 'presenter': 'text'}, {'key': 'prulbak', 'title': 'Prullenbak', 'value': 'Nee', 'presenter': 'text'}]",4.5481854588837,51.9410074441967,3067AK
5779866,LantarenVenster,Otto Reuchlinweg 996,Rotterdam,"[{'key': 'rolstoel', 'title': 'Rolstoel', 'value': 'Ja', 'presenter': 'text'}, {'key': 'baby', 'title': 'Baby', 'value': 'Ja', 'presenter': 'text'}, {'key': 'prulbak', 'title': 'Prullenbak', 'value': 'Ja', 'presenter': 'text'}]",4.48696074902898,51.9048111578325,3072 MD
5779476,Gemeente Rotterdam (De Rotterdam),Wilhelminakade 179,Rotterdam,"[{'key': 'rolstoel', 'title': 'Rolstoel', 'value': 'Nee', 'presenter': 'text'}, {'key': 'baby', 'title': 'Baby', 'value': 'Nee', 'presenter': 'text'}, {'key': 'prulbak', 'title': 'Prullenbak', 'value': 'Nee', 'presenter': 'text'}]",4.4882348959943,51.9065098237655,3072 AP
5779479,Gemeente Rotterdam (Stadswinkel Feijenoord),Maashaven O.z. 230,Rotterdam,"[{'key': 'rolstoel', 'title': 'Rolstoel', 'value': 'Ja', 'presenter': 'text'}, {'key': 'baby', 'title': 'Baby', 'value': 'Ja', 'presenter': 'text'}, {'key': 'prulbak', 'title': 'Prullenbak', 'value': 'Nee', 'presenter': 'text'}]",4.49641076990395,51.8991735320837,3072 HS
5779482,Gemeente Rotterdam (Slinge),Zuiderparkweg 300,Rotterdam,"[{'key': 'rolstoel', 'title': 'Rolstoel', 'value': 'Ja', 'presenter': 'text'}, {'key': 'baby', 'title': 'Baby', 'value': 'Nee', 'presenter': 'text'}, {'key': 'prulbak', 'title': 'Prullenbak', 'value': 'Nee', 'presenter': 'text'}]",4.47835924144909,51.8728915954709,3085 BW
5779485,Gemeente Rotterdam (Gravendijkwal),'s-Gravendijkwal 28,Rotterdam,"[{'key': 'rolstoel', 'title': 'Rolstoel', 'value': 'Ja', 'presenter': 'text'}, {'key': 'baby', 'title': 'Baby', 'value': 'Nee', 'presenter': 'text'}, {'key': 'prulbak', 'title': 'Prullenbak', 'value': 'Nee', 'presenter': 'text'}]",4.46369000721549,51.9179676981503,3014 EC
5779488,Gemeente Rotterdam (Charlois),Annie M.G. Schmidtplein 16,Rotterdam,"[{'key': 'rolstoel', 'title': 'Rolstoel', 'value': 'Ja', 'presenter': 'text'}, {'key': 'baby', 'title': 'Baby', 'value': 'Ja', 'presenter': 'text'}, {'key': 'prulbak', 'title': 'Prullenbak', 'value': 'Nee', 'presenter': 'text'}]",4.48724183833012,51.8872086824104,3083 NZ
5779491,Gemeente Rotterdam (Hillegersberg-Schiebroek),Argonautenweg 23,Rotterdam,"[{'key': 'rolstoel', 'title': 'Rolstoel', 'value': 'Ja', 'presenter': 'text'}, {'key': 'baby', 'title': 'Baby', 'value': 'Nee', 'presenter': 'text'}, {'key': 'prulbak', 'title': 'Prullenbak', 'value': 'Nee', 'presenter': 'text'}]",4.49077144715947,51.9605738881148,3054 RP
5779494,Gemeente Rotterdam (Overschie),Burgemeester Baumannlaan 178,Rotterdam,"[{'key': 'rolstoel', 'title': 'Rolstoel', 'value': 'Ja', 'presenter': 'text'}, {'key': 'baby', 'title': 'Baby', 'value': 'Nee', 'presenter': 'text'}, {'key': 'prulbak', 'title': 'Prullenbak', 'value': 'Nee', 'presenter': 'text'}]",4.42800294277359,51.9347135328374,3042 AJ
5779497,Gemeente Rotterdam (Stadswinkel Hoogvliet),Rijkeeplein 4,Hoogvliet,"[{'key': 'rolstoel', 'title': 'Rolstoel', 'value': 'Ja', 'presenter': 'text'}, {'key': 'baby', 'title': 'Baby', 'value': 'Ja', 'presenter': 'text'}, {'key': 'prulbak', 'title': 'Prullenbak', 'value': 'Nee', 'presenter': 'text'}]",4.3573485957209,51.8654142484338,3191 ED
5779500,Gemeente Rotterdam (Stadhuis),Coolsingel 40,Rotterdam,"[{'key': 'rolstoel', 'title': 'Rolstoel', 'value': 'Ja', 'presenter': 'text'}, {'key': 'baby', 'title': 'Baby', 'value': 'Nee', 'presenter': 'text'}, {'key': 'prulbak', 'title': 'Prullenbak', 'value': 'Nee', 'presenter': 'text'}]",4.47927787119828,51.9227489600408,3011 AD
5779503,Gemeente Rotterdam (Stadswinkel Centrum),Coolsingel 40,Rotterdam,"[{'key': 'rolstoel', 'title': 'Rolstoel', 'value': 'Ja', 'presenter': 'text'}, {'key': 'baby', 'title': 'Baby', 'value': 'Ja', 'presenter': 'text'}, {'key': 'prulbak', 'title': 'Prullenbak', 'value': 'Nee', 'presenter': 'text'}]",4.48039101985861,51.9229402042068,3011 AD
5779506,Gemeente Rotterdam (Het Timmerhuis),Halvemaanpassage 90,Rotterdam,"[{'key': 'rolstoel', 'title': 'Rolstoel', 'value': 'Ja', 'presenter': 'text'}, {'key': 'baby', 'title': 'Baby', 'value': 'Ja', 'presenter': 'text'}, {'key': 'prulbak', 'title': 'Prullenbak', 'value': 'Nee', 'presenter': 'text'}]",4.48111313570866,51.9225329045347,3011 DL
5779509,Gemeente Rotterdam (Noord),Eudokiaplein 35,Rotterdam,"[{'key': 'rolstoel', 'title': 'Rolstoel', 'value': 'Ja', 'presenter': 'text'}, {'key': 'baby', 'title': 'Baby', 'value': 'Nee', 'presenter': 'text'}, {'key': 'prulbak', 'title': 'Prullenbak', 'value': 'Nee', 'presenter': 'text'}]",4.47105856910737,51.9326075091805,3037 BT
5779512,Gemeente Rotterdam (Stadswinkel Rozenburg),Jan van Goyenstraat 1,Rozenburg,"[{'key': 'rolstoel', 'title': 'Rolstoel', 'value': 'Ja', 'presenter': 'text'}, {'key': 'baby', 'title': 'Baby', 'value': 'Ja', 'presenter': 'text'}, {'key': 'prulbak', 'title': 'Prullenbak', 'value': 'Nee', 'presenter': 'text'}]",4.24883337409975,51.9038240222688,3181 HR
5779515,Gemeente Rotterdam (Stadswinkel Hoek van Holland),Mercatorweg 50,Hoek van Holland,"[{'key': 'rolstoel', 'title': 'Rolstoel', 'value': 'Ja', 'presenter': 'text'}, {'key': 'baby', 'title': 'Baby', 'value': 'Ja', 'presenter': 'text'}, {'key': 'prulbak', 'title': 'Prullenbak', 'value': 'Nee', 'presenter': 'text'}]",4.13770000612302,51.977189307489,3151 CJ
5779518,Gemeente Rotterdam (IJsselmonde),Herenwaard 23,Rotterdam,"[{'key': 'rolstoel', 'title': 'Rolstoel', 'value': 'Ja', 'presenter': 'text'}, {'key': 'baby', 'title': 'Baby', 'value': 'Ja', 'presenter': 'text'}, {'key': 'prulbak', 'title': 'Prullenbak', 'value': 'Nee', 'presenter': 'text'}]",4.54767606041237,51.8881699109109,3078 AK
5779521,Gemeente Rotterdam (Delfshaven),Looiershof 1,Rotterdam,"[{'key': 'rolstoel', 'title': 'Rolstoel', 'value': 'Ja', 'presenter': 'text'}, {'key': 'baby', 'title': 'Baby', 'value': 'Ja', 'presenter': 'text'}, {'key': 'prulbak', 'title': 'Prullenbak', 'value': 'Nee', 'presenter': 'text'}]",4.45454272620357,51.9047059422054,3024 CZ
5779524,Gemeente Rotterdam (Kralingen-Crooswijk),Oostzeedijk 276,Rotterdam,"[{'key': 'rolstoel', 'title': 'Rolstoel', 'value': 'Ja', 'presenter': 'text'}, {'key': 'baby', 'title': 'Baby', 'value': 'Nee', 'presenter': 'text'}, {'key': 'prulbak', 'title': 'Prullenbak', 'value': 'Nee', 'presenter': 'text'}]",4.50164614477461,51.9224693782336,3063 CA
5779527,Gemeente Rotterdam (Stadswinkel Prins Alexander),Prins Alexanderplein 21,Rotterdam,"[{'key': 'rolstoel', 'title': 'Rolstoel', 'value': 'Ja', 'presenter': 'text'}, {'key': 'baby', 'title': 'Baby', 'value': 'Ja', 'presenter': 'text'}, {'key': 'prulbak', 'title': 'Prullenbak', 'value': 'Nee', 'presenter': 'text'}]",4.55328490530327,51.9512962191737,3067 GC
5779530,Gemeente Rotterdam (Stadsarchief),Hofdijk 651,Rotterdam,"[{'key': 'rolstoel', 'title': 'Rolstoel', 'value': 'Ja', 'presenter': 'text'}, {'key': 'baby', 'title': 'Baby', 'value': 'Ja', 'presenter': 'text'}, {'key': 'prulbak', 'title': 'Prullenbak', 'value': 'Nee', 'presenter': 'text'}]",4.48084671963239,51.9274072758417,3032 CG
5779533,Gemeente Rotterdam (Pernis),Vroomstraat 14,Pernis,"[{'key': 'rolstoel', 'title': 'Rolstoel', 'value': 'Ja', 'presenter': 'text'}, {'key': 'baby', 'title': 'Baby', 'value': 'Nee', 'presenter': 'text'}, {'key': 'prulbak', 'title': 'Prullenbak', 'value': 'Nee', 'presenter': 'text'}]",4.38694750374208,51.8880603553058,3195 VP
5779575,Zwembad Hoek van Holland,De Cordesstraat 160,Hoek van Holland,"[{'key': 'rolstoel', 'title': 'Rolstoel', 'value': 'Nee', 'presenter': 'text'}, {'key': 'baby', 'title': 'Baby', 'value': 'Nee', 'presenter': 'text'}, {'key': 'prulbak', 'title': 'Prullenbak', 'value': 'Nee', 'presenter': 'text'}]",4.13754545682923,51.9758556720568,3151 BN
5779578,Sportcentrum De Rozenburcht,Zuidzijde 35,Rozenburg,"[{'key': 'rolstoel', 'title': 'Rolstoel', 'value': 'Ja', 'presenter': 'text'}, {'key': 'baby', 'title': 'Baby', 'value': 'Ja', 'presenter': 'text'}, {'key': 'prulbak', 'title': 'Prullenbak', 'value': 'Nee', 'presenter': 'text'}]",4.23575476183082,51.902467638043,3181 LR
5779581,Zwembad Pernis,Ring 220,Pernis,"[{'key': 'rolstoel', 'title': 'Rolstoel', 'value': 'Ja', 'presenter': 'text'}, {'key': 'baby', 'title': 'Baby', 'value': 'Nee', 'presenter': 'text'}, {'key': 'prulbak', 'title': 'Prullenbak', 'value': 'Nee', 'presenter': 'text'}]",4.38761234050672,51.8849262612738,3195 XR
5779584,Zwembad Hoogvliet,Middenbaan-Zuid 400,Hoogvliet,"[{'key': 'rolstoel', 'title': 'Rolstoel', 'value': 'Ja', 'presenter': 'text'}, {'key': 'baby', 'title': 'Baby', 'value': 'Nee', 'presenter': 'text'}, {'key': 'prulbak', 'title': 'Prullenbak', 'value': 'Nee', 'presenter': 'text'}]",4.35761087296917,51.8632205880128,3191 AH
5779587,Zwembad IJsselmonde,Dwarsdijk 80,Rotterdam,"[{'key': 'rolstoel', 'title': 'Rolstoel', 'value': 'Ja', 'presenter': 'text'}, {'key': 'baby', 'title': 'Baby', 'value': 'Nee', 'presenter': 'text'}, {'key': 'prulbak', 'title': 'Prullenbak', 'value': 'Nee', 'presenter': 'text'}]",4.54181166453702,51.8915973353508,3078 JD
5779590,Zwemcentrum Rotterdam,Annie M.G. Schmidtplein 16,Rotterdam,"[{'key': 'rolstoel', 'title': 'Rolstoel', 'value': 'Ja', 'presenter': 'text'}, {'key': 'baby', 'title': 'Baby', 'value': 'Ja', 'presenter': 'text'}, {'key': 'prulbak', 'title': 'Prullenbak', 'value': 'Nee', 'presenter': 'text'}]",4.48751744280091,51.8871331997828,3083 NZ
5779593,Zwembad Afrikaanderplein,Jacominastraat 41,Rotterdam,"[{'key': 'rolstoel', 'title': 'Rolstoel', 'value': 'Ja', 'presenter': 'text'}, {'key': 'baby', 'title': 'Baby', 'value': 'Nee', 'presenter': 'text'}, {'key': 'prulbak', 'title': 'Prullenbak', 'value': 'Nee', 'presenter': 'text'}]",4.50166817040308,51.9021234764343,3072 SC
5779596,Sportcentrum West,Spaanseweg 2,Rotterdam,"[{'key': 'rolstoel', 'title': 'Rolstoel', 'value': 'Ja', 'presenter': 'text'}, {'key': 'baby', 'title': 'Baby', 'value': 'Nee', 'presenter': 'text'}, {'key': 'prulbak', 'title': 'Prullenbak', 'value': 'Nee', 'presenter': 'text'}]",4.42929459612665,51.9195997526206,3028 HW
5779599,Zwembad Overschie,Burgemeester Koningssingel 45,Rotterdam,"[{'key': 'rolstoel', 'title': 'Rolstoel', 'value': 'Ja', 'presenter': 'text'}, {'key': 'baby', 'title': 'Baby', 'value': 'Nee', 'presenter': 'text'}, {'key': 'prulbak', 'title': 'Prullenbak', 'value': 'Nee', 'presenter': 'text'}]",4.43009899987365,51.9318767817452,3042 NK
5779602,Sportcentrum De Wilgenring,Melachtonweg 70,Rotterdam,"[{'key': 'rolstoel', 'title': 'Rolstoel', 'value': 'Ja', 'presenter': 'text'}, {'key': 'baby', 'title': 'Baby', 'value': 'Ja', 'presenter': 'text'}, {'key': 'prulbak', 'title': 'Prullenbak', 'value': 'Nee', 'presenter': 'text'}]",4.47215375444019,51.9488476420342,3052 KV
5779608,Oostelijk Zwembad,Gerdesiaweg 480,Rotterdam,"[{'key': 'rolstoel', 'title': 'Rolstoel', 'value': 'Ja', 'presenter': 'text'}, {'key': 'baby', 'title': 'Baby', 'value': 'Ja', 'presenter': 'text'}, {'key': 'prulbak', 'title': 'Prullenbak', 'value': 'Nee', 'presenter': 'text'}]",4.49817706792872,51.9258675931023,3061 RA
5779611,Recreatiecentrum Oostervant,Oostervantstraat 25,Rotterdam,"[{'key': 'rolstoel', 'title': 'Rolstoel', 'value': 'Ja', 'presenter': 'text'}, {'key': 'baby', 'title': 'Baby', 'value': 'Ja', 'presenter': 'text'}, {'key': 'prulbak', 'title': 'Prullenbak', 'value': 'Nee', 'presenter': 'text'}]",4.46082707955632,51.9203481591532,3021 PT
5779614,Recreatiecentrum Zevenkampse Ring,Zevenkampse Ring 301,Rotterdam,"[{'key': 'rolstoel', 'title': 'Rolstoel', 'value': 'Ja', 'presenter': 'text'}, {'key': 'baby', 'title': 'Baby', 'value': 'Ja', 'presenter': 'text'}, {'key': 'prulbak', 'title': 'Prullenbak', 'value': 'Nee', 'presenter': 'text'}]",4.57203812257186,51.9643751749298,3068 HG
5779617,Van Maanenbad,Van Maanenstraat 8,Rotterdam,"[{'key': 'rolstoel', 'title': 'Rolstoel', 'value': 'Ja', 'presenter': 'text'}, {'key': 'baby', 'title': 'Baby', 'value': 'Ja', 'presenter': 'text'}, {'key': 'prulbak', 'title': 'Prullenbak', 'value': 'Nee', 'presenter': 'text'}]",4.46448210818885,51.9321898109615,3038 CZ
5779620,Huis van de Wijk (De Nieuwe Gaffel),Gaffelstraat 63,Rotterdam,"[{'key': 'rolstoel', 'title': 'Rolstoel', 'value': 'Ja', 'presenter': 'text'}, {'key': 'baby', 'title': 'Baby', 'value': 'Nee', 'presenter': 'text'}, {'key': 'prulbak', 'title': 'Prullenbak', 'value': 'Nee', 'presenter': 'text'}]",4.46756183872811,51.9178493482019,3014 RC
5779623,Huis van de Wijk (De Kip),Kipstraat 37,Rotterdam,"[{'key': 'rolstoel', 'title': 'Rolstoel', 'value': 'Ja', 'presenter': 'text'}, {'key': 'baby', 'title': 'Baby', 'value': 'Nee', 'presenter': 'text'}, {'key': 'prulbak', 'title': 'Prullenbak', 'value': 'Nee', 'presenter': 'text'}]",4.4915810894366,51.9230579747586,3011 RS
5779626,Huis van de Wijk (Huis van Carnisse),Texelsestraat 18,Rotterdam,"[{'key': 'rolstoel', 'title': 'Rolstoel', 'value': 'Ja', 'presenter': 'text'}, {'key': 'baby', 'title': 'Baby', 'value': 'Nee', 'presenter': 'text'}, {'key': 'prulbak', 'title': 'Prullenbak', 'value': 'Nee', 'presenter': 'text'}]",4.48195838681408,51.8898007462701,3083 PW
5779629,Huis van de Wijk (De Nieuwe Nachtegaal),Mezenhof 1,Rotterdam,"[{'key': 'rolstoel', 'title': 'Rolstoel', 'value': 'Ja', 'presenter': 'text'}, {'key': 'baby', 'title': 'Baby', 'value': 'Ja', 'presenter': 'text'}, {'key': 'prulbak', 'title': 'Prullenbak', 'value': 'Nee', 'presenter': 'text'}]",4.46792003325153,51.8851157243206,3082 ZE
5779632,Huis van de Wijk (Oud Charlois),Clemenstraat 111,Rotterdam,"[{'key': 'rolstoel', 'title': 'Rolstoel', 'value': 'Ja', 'presenter': 'text'}, {'key': 'baby', 'title': 'Baby', 'value': 'Nee', 'presenter': 'text'}, {'key': 'prulbak', 'title': 'Prullenbak', 'value': 'Nee', 'presenter': 'text'}]",4.46729612443079,51.893871857783,3082 CE
5779635,Huis van de Wijk (Het Middelpunt),Slinge 250,Rotterdam,"[{'key': 'rolstoel', 'title': 'Rolstoel', 'value': 'Ja', 'presenter': 'text'}, {'key': 'baby', 'title': 'Baby', 'value': 'Nee', 'presenter': 'text'}, {'key': 'prulbak', 'title': 'Prullenbak', 'value': 'Nee', 'presenter': 'text'}]",4.47860289127373,51.873430473449,3085 EX
5779638,Huis van de Wijk (Millinxparkhuis),Millinxstraat 69,Rotterdam,"[{'key': 'rolstoel', 'title': 'Rolstoel', 'value': 'Ja', 'presenter': 'text'}, {'key': 'baby', 'title': 'Baby', 'value': 'Nee', 'presenter': 'text'}, {'key': 'prulbak', 'title': 'Prullenbak', 'value': 'Nee', 'presenter': 'text'}]",4.4927139032666,51.8923705011824,3081 PE
5779641,Huis van de Wijk (VEC Pier 80),Jan Kobellstraat 51,Rotterdam,"[{'key': 'rolstoel', 'title': 'Rolstoel', 'value': 'Nee', 'presenter': 'text'}, {'key': 'baby', 'title': 'Baby', 'value': 'Nee', 'presenter': 'text'}, {'key': 'prulbak', 'title': 'Prullenbak', 'value': 'Nee', 'presenter': 'text'}]",4.44240790390326,51.9122944715435,3026 SP
5779644,Huis van de Wijk (Pier 80),Rosener Manzstraat 80,Rotterdam,"[{'key': 'rolstoel', 'title': 'Rolstoel', 'value': 'Ja', 'presenter': 'text'}, {'key': 'baby', 'title': 'Baby', 'value': 'Ja', 'presenter': 'text'}, {'key': 'prulbak', 'title': 'Prullenbak', 'value': 'Nee', 'presenter': 'text'}]",4.44200522974789,51.912515981917,3026 TV
5779647,Huis van de Wijk (Post West),Tidemanstraat 80,Rotterdam,"[{'key': 'rolstoel', 'title': 'Rolstoel', 'value': 'Ja', 'presenter': 'text'}, {'key': 'baby', 'title': 'Baby', 'value': 'Nee', 'presenter': 'text'}, {'key': 'prulbak', 'title': 'Prullenbak', 'value': 'Nee', 'presenter': 'text'}]",4.44810993963446,51.917125282951,3022 SM
5779650,Huis van de Wijk (De Put),Pinkstraat 10,Rotterdam,"[{'key': 'rolstoel', 'title': 'Rolstoel', 'value': 'Ja', 'presenter': 'text'}, {'key': 'baby', 'title': 'Baby', 'value': 'Nee', 'presenter': 'text'}, {'key': 'prulbak', 'title': 'Prullenbak', 'value': 'Nee', 'presenter': 'text'}]",4.41805198281771,51.9179161535894,3028 XX
5779653,Huis van de Wijk (Schiemond),Dempostraat 143,Rotterdam,"[{'key': 'rolstoel', 'title': 'Rolstoel', 'value': 'Ja', 'presenter': 'text'}, {'key': 'baby', 'title': 'Baby', 'value': 'Nee', 'presenter': 'text'}, {'key': 'prulbak', 'title': 'Prullenbak', 'value': 'Nee', 'presenter': 'text'}]",4.44165288961021,51.903357608445,3029 CL
5779656,Huis van de Wijk (Westervolkshuis),Spartastraat 1,Rotterdam,"[{'key': 'rolstoel', 'title': 'Rolstoel', 'value': 'Ja', 'presenter': 'text'}, {'key': 'baby', 'title': 'Baby', 'value': 'Nee', 'presenter': 'text'}, {'key': 'prulbak', 'title': 'Prullenbak', 'value': 'Nee', 'presenter': 'text'}]",4.43523047181786,51.9197627377885,3027 ER
5779659,Huis van de Wijk ('t Klooster),Afrikaanderplein 7,Rotterdam,"[{'key': 'rolstoel', 'title': 'Rolstoel', 'value': 'Ja', 'presenter': 'text'}, {'key': 'baby', 'title': 'Baby', 'value': 'Nee', 'presenter': 'text'}, {'key': 'prulbak', 'title': 'Prullenbak', 'value': 'Nee', 'presenter': 'text'}]",4.50232983747949,51.9011752462904,3072 EA
5779662,Huis van de Wijk (Irene),Oudelandstraat 75,Rotterdam,"[{'key': 'rolstoel', 'title': 'Rolstoel', 'value': 'Ja', 'presenter': 'text'}, {'key': 'baby', 'title': 'Baby', 'value': 'Nee', 'presenter': 'text'}, {'key': 'prulbak', 'title': 'Prullenbak', 'value': 'Nee', 'presenter': 'text'}]",4.50311709518619,51.8903671524739,3073 LJ
5779665,Huis van de Wijk (De Dam),Persoonsdam 142,Rotterdam,"[{'key': 'rolstoel', 'title': 'Rolstoel', 'value': 'Ja', 'presenter': 'text'}, {'key': 'baby', 'title': 'Baby', 'value': 'Nee', 'presenter': 'text'}, {'key': 'prulbak', 'title': 'Prullenbak', 'value': 'Nee', 'presenter': 'text'}]",4.50890013757427,51.9101359211945,3071 EE
5779668,Huis van de Wijk (Hillevliet),Hillevliet 90,Rotterdam,"[{'key': 'rolstoel', 'title': 'Rolstoel', 'value': 'Nee', 'presenter': 'text'}, {'key': 'baby', 'title': 'Baby', 'value': 'Nee', 'presenter': 'text'}, {'key': 'prulbak', 'title': 'Prullenbak', 'value': 'Nee', 'presenter': 'text'}]",4.50632723118708,51.8959654672003,3074 KD
5779671,Huis van de Wijk (De Vuurplaat),Vuurplaat 83,Rotterdam,"[{'key': 'rolstoel', 'title': 'Rolstoel', 'value': 'Ja', 'presenter': 'text'}, {'key': 'baby', 'title': 'Baby', 'value': 'Nee', 'presenter': 'text'}, {'key': 'prulbak', 'title': 'Prullenbak', 'value': 'Nee', 'presenter': 'text'}]",4.50583415795905,51.9071979210558,3071 AR
5779674,Huis van de Wijk (Aan de Kade),Prins Hendrikkade 89,Rotterdam,"[{'key': 'rolstoel', 'title': 'Rolstoel', 'value': 'Ja', 'presenter': 'text'}, {'key': 'baby', 'title': 'Baby', 'value': 'Nee', 'presenter': 'text'}, {'key': 'prulbak', 'title': 'Prullenbak', 'value': 'Nee', 'presenter': 'text'}]",4.49543450092874,51.9127512159053,3071 KG
5779677,Huis van de Wijk (t Steiger),Fruitlaan 8,Rotterdam,"[{'key': 'rolstoel', 'title': 'Rolstoel', 'value': 'Ja', 'presenter': 'text'}, {'key': 'baby', 'title': 'Baby', 'value': 'Nee', 'presenter': 'text'}, {'key': 'prulbak', 'title': 'Prullenbak', 'value': 'Nee', 'presenter': 'text'}]",4.48010136291868,51.9005917738416,3072 WK
5779680,Huis van de Wijk (De Brink),Dreef 71,Rotterdam,"[{'key': 'rolstoel', 'title': 'Rolstoel', 'value': 'Ja', 'presenter': 'text'}, {'key': 'baby', 'title': 'Baby', 'value': 'Ja', 'presenter': 'text'}, {'key': 'prulbak', 'title': 'Prullenbak', 'value': 'Nee', 'presenter': 'text'}]",4.51146127969823,51.8871617306643,3075 HA
5779683,Huis van de Wijk (Arcadia),Apollostraat 207-213,Rotterdam,"[{'key': 'rolstoel', 'title': 'Rolstoel', 'value': 'Ja', 'presenter': 'text'}, {'key': 'baby', 'title': 'Baby', 'value': 'Nee', 'presenter': 'text'}, {'key': 'prulbak', 'title': 'Prullenbak', 'value': 'Nee', 'presenter': 'text'}]",4.49114253194788,51.9645102374118,3054 TA
5779686,Huis van de Wijk (Aafje Schiehoven),Hamakerstraat 77,Rotterdam,"[{'key': 'rolstoel', 'title': 'Rolstoel', 'value': 'Ja', 'presenter': 'text'}, {'key': 'baby', 'title': 'Baby', 'value': 'Nee', 'presenter': 'text'}, {'key': 'prulbak', 'title': 'Prullenbak', 'value': 'Nee', 'presenter': 'text'}]",4.46477933609317,51.9523401955535,3052 JA
5779689,Huis van de Wijk (De Hoekstee),Mercatorweg 50,Hoek van Holland,"[{'key': 'rolstoel', 'title': 'Rolstoel', 'value': 'Ja', 'presenter': 'text'}, {'key': 'baby', 'title': 'Baby', 'value': 'Nee', 'presenter': 'text'}, {'key': 'prulbak', 'title': 'Prullenbak', 'value': 'Nee', 'presenter': 'text'}]",4.13792010151005,51.9769652777815,3151 CJ
5779692,Huis van de Wijk (Villa Vonk),Othelloweg 8,Hoogvliet,"[{'key': 'rolstoel', 'title': 'Rolstoel', 'value': 'Ja', 'presenter': 'text'}, {'key': 'baby', 'title': 'Baby', 'value': 'Ja', 'presenter': 'text'}, {'key': 'prulbak', 'title': 'Prullenbak', 'value': 'Nee', 'presenter': 'text'}]",4.3636150475232,51.8705675011089,3194 GS
5779695,Huis van de Wijk (De Zevensprong),Mosoelstraat 20,Hoogvliet,"[{'key': 'rolstoel', 'title': 'Rolstoel', 'value': 'Ja', 'presenter': 'text'}, {'key': 'baby', 'title': 'Baby', 'value': 'Nee', 'presenter': 'text'}, {'key': 'prulbak', 'title': 'Prullenbak', 'value': 'Nee', 'presenter': 'text'}]",4.35171476769346,51.8704643708022,3193 EL
5779698,Huis van de Wijk (De Bonte Koe),Ring 224,Pernis,"[{'key': 'rolstoel', 'title': 'Rolstoel', 'value': 'Ja', 'presenter': 'text'}, {'key': 'baby', 'title': 'Baby', 'value': 'Ja', 'presenter': 'text'}, {'key': 'prulbak', 'title': 'Prullenbak', 'value': 'Nee', 'presenter': 'text'}]",4.38752581137353,51.8849291910536,3195 XR
5779701,Huis van de Wijk (De Focus),Oude Watering 324,Rotterdam,"[{'key': 'rolstoel', 'title': 'Rolstoel', 'value': 'Ja', 'presenter': 'text'}, {'key': 'baby', 'title': 'Baby', 'value': 'Nee', 'presenter': 'text'}, {'key': 'prulbak', 'title': 'Prullenbak', 'value': 'Nee', 'presenter': 'text'}]",4.56621759305311,51.8920445354422,3077 RE
5779704,Huis van de Wijk (Lombardijen),Menanderstraat 89,Rotterdam,"[{'key': 'rolstoel', 'title': 'Rolstoel', 'value': 'Ja', 'presenter': 'text'}, {'key': 'baby', 'title': 'Baby', 'value': 'Nee', 'presenter': 'text'}, {'key': 'prulbak', 'title': 'Prullenbak', 'value': 'Nee', 'presenter': 'text'}]",4.52634694382558,51.8774420858059,3076 AG
5779707,Huis van de Wijk (Grote Hagen),Grote Hagen 92,Rotterdam,"[{'key': 'rolstoel', 'title': 'Rolstoel', 'value': 'Ja', 'presenter': 'text'}, {'key': 'baby', 'title': 'Baby', 'value': 'Nee', 'presenter': 'text'}, {'key': 'prulbak', 'title': 'Prullenbak', 'value': 'Nee', 'presenter': 'text'}]",4.55017855001148,51.886678492455,3078 RC
5779710,Huis van de Wijk (De Dijk),Susannadijk 153,Rotterdam,"[{'key': 'rolstoel', 'title': 'Rolstoel', 'value': 'Ja', 'presenter': 'text'}, {'key': 'baby', 'title': 'Baby', 'value': 'Nee', 'presenter': 'text'}, {'key': 'prulbak', 'title': 'Prullenbak', 'value': 'Nee', 'presenter': 'text'}]",4.54456786938904,51.8814151126101,3079 VN
5779713,Huis van de Wijk (Berkelplein),Ommoordsestraat 12,Rotterdam,"[{'key': 'rolstoel', 'title': 'Rolstoel', 'value': 'Ja', 'presenter': 'text'}, {'key': 'baby', 'title': 'Baby', 'value': 'Nee', 'presenter': 'text'}, {'key': 'prulbak', 'title': 'Prullenbak', 'value': 'Nee', 'presenter': 'text'}]",4.50123772677596,51.9304199077869,3061 LL
5779716,Huis van de Wijk (De Nieuwe Branding),Isaäc Hubertstraat 153,Rotterdam,"[{'key': 'rolstoel', 'title': 'Rolstoel', 'value': 'Ja', 'presenter': 'text'}, {'key': 'baby', 'title': 'Baby', 'value': 'Ja', 'presenter': 'text'}, {'key': 'prulbak', 'title': 'Prullenbak', 'value': 'Nee', 'presenter': 'text'}]",4.48928127809733,51.9313661174123,3034 CS
5779719,Huis van de Wijk (De Banier),Banierstraat 1,Rotterdam,"[{'key': 'rolstoel', 'title': 'Rolstoel', 'value': 'Nee', 'presenter': 'text'}, {'key': 'baby', 'title': 'Baby', 'value': 'Ja', 'presenter': 'text'}, {'key': 'prulbak', 'title': 'Prullenbak', 'value': 'Nee', 'presenter': 'text'}]",4.47416520281304,51.9300653101524,3032 PA
5779722,Huis van de Wijk (Mozaïek),Schommelstraat 69,Rotterdam,"[{'key': 'rolstoel', 'title': 'Rolstoel', 'value': 'Ja', 'presenter': 'text'}, {'key': 'baby', 'title': 'Baby', 'value': 'Nee', 'presenter': 'text'}, {'key': 'prulbak', 'title': 'Prullenbak', 'value': 'Nee', 'presenter': 'text'}]",4.47836499502975,51.934898631529,3035 CG
5779725,Huis van de Wijk (Het Klooster),Ruivenstraat 81,Rotterdam,"[{'key': 'rolstoel', 'title': 'Rolstoel', 'value': 'Ja', 'presenter': 'text'}, {'key': 'baby', 'title': 'Baby', 'value': 'Nee', 'presenter': 'text'}, {'key': 'prulbak', 'title': 'Prullenbak', 'value': 'Nee', 'presenter': 'text'}]",4.48302101968356,51.938244249315,3036 DD
5779728,Huis van de Wijk (De Propeller),Jacob Loisstraat 18,Rotterdam,"[{'key': 'rolstoel', 'title': 'Rolstoel', 'value': 'Ja', 'presenter': 'text'}, {'key': 'baby', 'title': 'Baby', 'value': 'Nee', 'presenter': 'text'}, {'key': 'prulbak', 'title': 'Prullenbak', 'value': 'Nee', 'presenter': 'text'}]",4.46971615701331,51.9280919021142,3033 RD
5779731,Huis van de Wijk (De Halte),Hoge Schiehof 39,Rotterdam,"[{'key': 'rolstoel', 'title': 'Rolstoel', 'value': 'Ja', 'presenter': 'text'}, {'key': 'baby', 'title': 'Baby', 'value': 'Ja', 'presenter': 'text'}, {'key': 'prulbak', 'title': 'Prullenbak', 'value': 'Nee', 'presenter': 'text'}]",4.42900750206508,51.9351174585536,3042 AZ
5779734,Huis van de Wijk (Prinsenhof),Bramanteplein 2,Rotterdam,"[{'key': 'rolstoel', 'title': 'Rolstoel', 'value': 'Ja', 'presenter': 'text'}, {'key': 'baby', 'title': 'Baby', 'value': 'Ja', 'presenter': 'text'}, {'key': 'prulbak', 'title': 'Prullenbak', 'value': 'Nee', 'presenter': 'text'}]",4.55141254900853,51.9365293764964,3066 BH
5779737,Huis van de Wijk (Rendierhof),Rendierstraat 3,Rotterdam,"[{'key': 'rolstoel', 'title': 'Rolstoel', 'value': 'Ja', 'presenter': 'text'}, {'key': 'baby', 'title': 'Baby', 'value': 'Ja', 'presenter': 'text'}, {'key': 'prulbak', 'title': 'Prullenbak', 'value': 'Nee', 'presenter': 'text'}]",4.55467552624855,51.9107620366389,3064 AX
5779740,Huis van de Wijk (Het Lage Land),Remmet van Milplaats 15,Rotterdam,"[{'key': 'rolstoel', 'title': 'Rolstoel', 'value': 'Ja', 'presenter': 'text'}, {'key': 'baby', 'title': 'Baby', 'value': 'Ja', 'presenter': 'text'}, {'key': 'prulbak', 'title': 'Prullenbak', 'value': 'Nee', 'presenter': 'text'}]",4.54691716584045,51.9409231391692,3067 AN
5779743,Huis van de Wijk (Kristal),Cypruslaan 404,Rotterdam,"[{'key': 'rolstoel', 'title': 'Rolstoel', 'value': 'Ja', 'presenter': 'text'}, {'key': 'baby', 'title': 'Baby', 'value': 'Nee', 'presenter': 'text'}, {'key': 'prulbak', 'title': 'Prullenbak', 'value': 'Nee', 'presenter': 'text'}]",4.58369926579576,51.9800453384302,3059 XA
5779746,Huis van de Wijk (Oriënt),Kobehof 5,Rotterdam,"[{'key': 'rolstoel', 'title': 'Rolstoel', 'value': 'Ja', 'presenter': 'text'}, {'key': 'baby', 'title': 'Baby', 'value': 'Nee', 'presenter': 'text'}, {'key': 'prulbak', 'title': 'Prullenbak', 'value': 'Nee', 'presenter': 'text'}]",4.55631217433553,51.9437730476336,3067 MC
5779749,Huis van de wijk (Zevenkamp),Ambachtsplein 141,Rotterdam,"[{'key': 'rolstoel', 'title': 'Rolstoel', 'value': 'Ja', 'presenter': 'text'}, {'key': 'baby', 'title': 'Baby', 'value': 'Nee', 'presenter': 'text'}, {'key': 'prulbak', 'title': 'Prullenbak', 'value': 'Nee', 'presenter': 'text'}]",4.57037366848949,51.9653033064325,3068 GV
5779341,Langepad (Middelste),Langepad (Middelste),Rotterdam,"[{'key': 'rolstoel', 'title': 'Rolstoel', 'value': 'Ja', 'presenter': 'text'}, {'key': 'baby', 'title': 'Baby', 'value': 'Nee', 'presenter': 'text'}, {'key': 'prulbak', 'title': 'Prullenbak', 'value': 'Nee', 'presenter': 'text'}]",4.50718492126643,51.9391520782428,
5779353,Roel Langerakpark,Roel Langerakpark,Rotterdam,"[{'key': 'rolstoel', 'title': 'Rolstoel', 'value': 'Ja', 'presenter': 'text'}, {'key': 'baby', 'title': 'Baby', 'value': 'Nee', 'presenter': 'text'}, {'key': 'prulbak', 'title': 'Prullenbak', 'value': 'Ja', 'presenter': 'text'}]",4.44178030424527,51.9262336039914,
5779356,Vroesenpark,Vroesenpark,Rotterdam,"[{'key': 'rolstoel', 'title': 'Rolstoel', 'value': 'Ja', 'presenter': 'text'}, {'key': 'baby', 'title': 'Baby', 'value': 'Nee', 'presenter': 'text'}, {'key': 'prulbak', 'title': 'Prullenbak', 'value': 'Ja', 'presenter': 'text'}]",4.45594035613585,51.9298792382337,
5779359,Kralingse Plas,Kralingse Plas,Rotterdam,"[{'key': 'rolstoel', 'title': 'Rolstoel', 'value': 'Ja', 'presenter': 'text'}, {'key': 'baby', 'title': 'Baby', 'value': 'Nee', 'presenter': 'text'}, {'key': 'prulbak', 'title': 'Prullenbak', 'value': 'Ja', 'presenter': 'text'}]",4.5088187000992,51.9407665091358,
5779362,Binnenrotte,Binnenrotte,Rotterdam,"[{'key': 'rolstoel', 'title': 'Rolstoel', 'value': 'Ja', 'presenter': 'text'}, {'key': 'baby', 'title': 'Baby', 'value': 'Nee', 'presenter': 'text'}, {'key': 'prulbak', 'title': 'Prullenbak', 'value': 'Ja', 'presenter': 'text'}]",4.48663798322876,51.9220693513081,
5779386,Het Park,Het Park,Rotterdam,"[{'key': 'rolstoel', 'title': 'Rolstoel', 'value': 'Ja', 'presenter': 'text'}, {'key': 'baby', 'title': 'Baby', 'value': 'Nee', 'presenter': 'text'}, {'key': 'prulbak', 'title': 'Prullenbak', 'value': 'Nee', 'presenter': 'text'}]",4.47108679020115,51.907423855438,
5779401,Zuiderpark,Zuiderpark,Rotterdam,"[{'key': 'rolstoel', 'title': 'Rolstoel', 'value': 'Ja', 'presenter': 'text'}, {'key': 'baby', 'title': 'Baby', 'value': 'Ja', 'presenter': 'text'}, {'key': 'prulbak', 'title': 'Prullenbak', 'value': 'Ja', 'presenter': 'text'}]",4.4882882046825,51.8792728892657,
5779425,Siciliëboulevard,Siciliëboulevard,Rotterdam,"[{'key': 'rolstoel', 'title': 'Rolstoel', 'value': 'Ja', 'presenter': 'text'}, {'key': 'baby', 'title': 'Baby', 'value': 'Ja', 'presenter': 'text'}, {'key': 'prulbak', 'title': 'Prullenbak', 'value': 'Ja', 'presenter': 'text'}]",4.58084678466707,51.9850907522623,
5779428,Kosboulevard,Kosboulevard,Rotterdam,"[{'key': 'rolstoel', 'title': 'Rolstoel', 'value': 'Ja', 'presenter': 'text'}, {'key': 'baby', 'title': 'Baby', 'value': 'Ja', 'presenter': 'text'}, {'key': 'prulbak', 'title': 'Prullenbak', 'value': 'Ja', 'presenter': 'text'}]",4.57886419166619,51.9791003244038,
5779464,Schiestraat,Schiestraat,Rotterdam,"[{'key': 'rolstoel', 'title': 'Rolstoel', 'value': 'Ja', 'presenter': 'text'}, {'key': 'baby', 'title': 'Baby', 'value': 'Nee', 'presenter': 'text'}, {'key': 'prulbak', 'title': 'Prullenbak', 'value': 'Ja', 'presenter': 'text'}]",4.47477783101612,51.9255542548087,
5779467,Eendrachtsplein,Eendrachtsplein,Rotterdam,"[{'key': 'rolstoel', 'title': 'Rolstoel', 'value': 'Ja', 'presenter': 'text'}, {'key': 'baby', 'title': 'Baby', 'value': 'Nee', 'presenter': 'text'}, {'key': 'prulbak', 'title': 'Prullenbak', 'value': 'Ja', 'presenter': 'text'}]",4.47367550207942,51.9166394431622,
5779752,Willemsplein,Willemsplein,Rotterdam,"[{'key': 'rolstoel', 'title': 'Rolstoel', 'value': 'Ja', 'presenter': 'text'}, {'key': 'baby', 'title': 'Baby', 'value': 'Nee', 'presenter': 'text'}, {'key': 'prulbak', 'title': 'Prullenbak', 'value': 'Nee', 'presenter': 'text'}]",4.4825330859429,51.9099642211061,
5779773,Museumpark,Jongkindstraat,Rotterdam,"[{'key': 'rolstoel', 'title': 'Rolstoel', 'value': 'Ja', 'presenter': 'text'}, {'key': 'baby', 'title': 'Baby', 'value': 'Nee', 'presenter': 'text'}, {'key': 'prulbak', 'title': 'Prullenbak', 'value': 'Nee', 'presenter': 'text'}]",4.47184646433849,51.9147490414669,
